{
    "CCSDS_OMM_VERS": "3.0",
    "COMMENT": "GENERATED VIA SPACE-TRACK.ORG API",
    "CREATION_DATE": "2025-11-23T21:08:43",
    "ORIGINATOR": "18 SPCS",
    "OBJECT_NAME": "BEIDOU 3M3",
    "OBJECT_ID": "2018-003A",
    "CENTER_NAME": "EARTH",
    "REF_FRAME": "TEME",
    "TIME_SYSTEM": "UTC",
    "MEAN_ELEMENT_THEORY": "SGP4",
    "EPOCH": "2025-11-23T03:51:36.148320",
    "MEAN_MOTION": "1.86232539",
    "ECCENTRICITY": "0.00024367",
    "INCLINATION": "54.5143",
    "RA_OF_ASC_NODE": "309.4960",
    "ARG_OF_PERICENTER": "74.2143",
    "MEAN_ANOMALY": "285.8064",
    "EPHEMERIS_TYPE": "0",
    "CLASSIFICATION_TYPE": "U",
    "NORAD_CAT_ID": "43107",
    "ELEMENT_SET_NO": "999",
    "REV_AT_EPOCH": "5351",
    "BSTAR": "0.00000000000000",
    "MEAN_MOTION_DOT": "-0.00000055",
    "MEAN_MOTION_DDOT": "0.0000000000000",
    "SEMIMAJOR_AXIS": "27906.035",
    "PERIOD": "773.227",
    "APOAPSIS": "21534.700",
    "PERIAPSIS": "21521.100",
    "OBJECT_TYPE": "PAYLOAD",
    "RCS_SIZE": "LARGE",
    "COUNTRY_CODE": "PRC",
    "LAUNCH_DATE": "2018-01-11",
    "SITE": "XSC",
    "DECAY_DATE": null,
    "FILE": "4896238",
    "GP_ID": "303334057",
    "TLE_LINE0": "0 BEIDOU 3M3",
    "TLE_LINE1": "1 43107U 18003A   25327.16083505 -.00000055  00000-0  00000-0 0  9995",
    "TLE_LINE2": "2 43107  54.5143 309.4960 0002437  74.2143 285.8064  1.86232539 53513"
}